NORAD_CAT_ID,OBJECT_NAME,OBJECT_TYPE,EPOCH,MEAN_MOTION,ECCENTRICITY,INCLINATION,RA_OF_ASC_NODE,ARG_OF_PERICENTER,MEAN_ANOMALY,BSTAR,MEAN_MOTION_DOT,MEAN_MOTION_DDOT,TLE_LINE0,TLE_LINE1,TLE_LINE2,SEMIMAJOR_AXIS,PERIOD,APOGEE,PERIGEE,DECAYED
53260.0,STARLINK-4136,PAYLOAD,2023-08-28 20:00:22,15.0884317,0.0001265,53.2183,21.4698,100.3493,259.7642,5.2266e-05,5.44e-06,0.0,0 STARLINK-4136,1 53260U 22086U   23240.83358853  .00000544  00000-0  52266-4 0  9996,2 53260  53.2183  21.4698 0001265 100.3493 259.7642 15.08843170 61597,6917.871,95.437,540.611,538.861,0.0
53260.0,STARLINK-4136,PAYLOAD,2023-08-29 16:40:23,15.08842668,0.0001426,53.2193,17.6061,76.8414,283.2737,6.7448e-05,7.86e-06,0.0,0 STARLINK-4136,1 53260U 22086U   23241.69471072  .00000786  00000-0  67448-4 0  9996,2 53260  53.2193  17.6061 0001426  76.8414 283.2737 15.08842668 61721,6917.872,95.437,540.724,538.751,0.0
53260.0,STARLINK-4136,PAYLOAD,2023-08-29 21:26:31,15.08850135,0.0001341,53.2187,16.7126,79.3754,280.7389,0.000103,1.352e-05,0.0,0 STARLINK-4136,1 53260U 22086U   23241.89342415  .00001352  00000-0  10300-3 0  9990,2 53260  53.2187  16.7126 0001341  79.3754 280.7389 15.08850135 61573,6917.849,95.437,540.642,538.787,0.0
53260.0,STARLINK-4136,PAYLOAD,2023-08-30 08:34:15,15.08828784,9.74e-05,53.2198,14.6322,82.7691,277.3412,4.846e-05,4.83e-06,0.0,0 STARLINK-4136,1 53260U 22086U   23242.35712026  .00000483  00000-0  48460-4 0  9994,2 53260  53.2198  14.6322 0000974  82.7691 277.3412 15.08828784 61641,6917.915,95.438,540.453,539.106,0.0
53260.0,STARLINK-4136,PAYLOAD,2023-08-30 16:31:09,15.08847465,0.0001331,53.2184,13.1463,87.8458,272.2686,9.5363e-05,1.23e-05,0.0,0 STARLINK-4136,1 53260U 22086U   23242.68830826  .00001230  00000-0  95363-4 0  9994,2 53260  53.2184  13.1463 0001331  87.8458 272.2686 15.08847465 61690,6917.858,95.437,540.643,538.802,0.0
53260.0,STARLINK-4136,PAYLOAD,2023-08-31 02:03:28,15.0883136,6.19e-05,53.2195,11.361,78.7861,281.3201,-0.00011661,-2.142e-05,0.0,0 STARLINK-4136,1 53260U 22086U   23243.08575193 -.00002142  00000-0 -11661-3 0  9995,2 53260  53.2195  11.3610 0000619  78.7861 281.3201 15.08831360 61759,6917.907,95.438,540.2,539.344,0.0
53260.0,STARLINK-4136,PAYLOAD,2023-08-31 11:35:48,15.08835346,0.0001218,53.2178,9.5791,81.8501,278.263,5.322e-05,5.59e-06,0.0,0 STARLINK-4136,1 53260U 22086U   23243.48319689  .00000559  00000-0  53220-4 0  9991,2 53260  53.2178   9.5791 0001218  81.8501 278.2630 15.08835346 61996,6917.895,95.438,540.602,538.917,0.0
53260.0,STARLINK-4136,PAYLOAD,2023-09-01 01:54:15,15.08849131,0.0001208,53.2177,6.9026,81.4023,278.7106,4.8384e-05,4.82e-06,0.0,0 STARLINK-4136,1 53260U 22086U   23244.07934787  .00000482  00000-0  48384-4 0  9999,2 53260  53.2177   6.9026 0001208  81.4023 278.7106 15.08849131 61902,6917.852,95.437,540.553,538.882,0.0
53260.0,STARLINK-4136,PAYLOAD,2023-09-01 11:26:34,15.0884373,0.0001528,53.2168,5.1176,86.3835,273.7332,0.00015235,2.138e-05,0.0,0 STARLINK-4136,1 53260U 22086U   23244.47679236  .00002138  00000-0  15235-3 0  9996,2 53260  53.2168   5.1176 0001528  86.3835 273.7332 15.08843730 61960,6917.869,95.437,540.791,538.677,0.0
53260.0,STARLINK-4136,PAYLOAD,2023-09-01 14:37:20,15.08847804,0.0001379,53.217,4.523,89.741,270.374,0.000214,3.12e-05,0.0,0 STARLINK-4136,1 53260U 22086U   23244.60927010  .00003120  00000-0  21400-3 0  9990,2 53260  53.2170   4.5230 0001379  89.7410 270.3740 15.08847804 62162,6917.857,95.437,540.676,538.768,0.0
53260.0,STARLINK-4136,PAYLOAD,2023-09-02 08:06:35,15.08839789,0.0001243,53.2171,1.252,91.3608,268.7527,0.00022745,3.334e-05,0.0,0 STARLINK-4136,1 53260U 22086U   23245.33791395  .00003334  00000-0  22745-3 0  9996,2 53260  53.2171   1.2520 0001243  91.3608 268.7527 15.08839789 62096,6917.881,95.438,540.606,538.886,0.0
53260.0,STARLINK-4136,PAYLOAD,2023-09-02 12:52:45,15.08838202,0.000128,53.2173,0.3592,99.3261,260.7876,0.00027373,4.071e-05,0.0,0 STARLINK-4136,1 53260U 22086U   23245.53663490  .00004071  00000-0  27373-3 0  9993,2 53260  53.2173   0.3592 0001280  99.3261 260.7876 15.08838202 62303,6917.886,95.438,540.636,538.865,0.0
53260.0,STARLINK-4136,PAYLOAD,2023-09-02 14:28:08,15.0884439,0.0001308,53.2175,0.0619,98.5196,261.5944,0.00015473,2.176e-05,0.0,0 STARLINK-4136,1 53260U 22086U   23245.60287097  .00002176  00000-0  15473-3 0  9998,2 53260  53.2175   0.0619 0001308  98.5196 261.5944 15.08844390 62312,6917.867,95.437,540.637,538.827,0.0
53260.0,STARLINK-4136,PAYLOAD,2023-09-03 07:57:22,15.08847022,0.0001316,53.2175,356.7909,98.4122,261.7019,0.00017142,2.442e-05,0.0,0 STARLINK-4136,1 53260U 22086U   23246.33150786  .00002442  00000-0  17142-3 0  9994,2 53260  53.2175 356.7909 0001316  98.4122 261.7019 15.08847022 62424,6917.859,95.437,540.634,538.814,0.0
53260.0,STARLINK-4136,PAYLOAD,2023-09-03 14:18:54,15.08853834,0.0001306,53.2171,355.6038,91.6563,268.4579,0.00021418,3.124e-05,0.0,0 STARLINK-4136,1 53260U 22086U   23246.59646301  .00003124  00000-0  21418-3 0  9994,2 53260  53.2171 355.6038 0001306  91.6563 268.4579 15.08853834 62281,6917.838,95.437,540.607,538.8,0.0
53260.0,STARLINK-4136,PAYLOAD,2023-09-03 23:51:13,15.088434,9.64e-05,53.217,353.8178,75.4374,284.6725,7.3191e-05,8.77e-06,0.0,0 STARLINK-4136,1 53260U 22086U   23246.99390691  .00000877  00000-0  73191-4 0  9994,2 53260  53.2170 353.8178 0000964  75.4374 284.6725 15.08843400 62342,6917.87,95.437,540.402,539.068,0.0
53260.0,STARLINK-4136,PAYLOAD,2023-09-04 07:48:09,15.08832519,0.0001731,53.2195,352.3334,95.0405,265.0784,-6.9534e-05,-1.394e-05,0.0,0 STARLINK-4136,1 53260U 22086U   23247.32511485 -.00001394  00000-0 -69534-4 0  9991,2 53260  53.2195 352.3334 0001731  95.0405 265.0784 15.08832519 62395,6917.903,95.438,540.966,538.571,0.0
53260.0,STARLINK-4136,PAYLOAD,2023-09-04 14:09:42,15.08829481,0.0001763,53.2185,351.1413,91.3658,268.7536,-0.00011719,-2.152e-05,0.0,0 STARLINK-4136,1 53260U 22086U   23247.59007724 -.00002152  00000-0 -11719-3 0  9990,2 53260  53.2185 351.1413 0001763  91.3658 268.7536 15.08829481 62617,6917.913,95.438,540.997,538.558,0.0
53260.0,STARLINK-4136,PAYLOAD,2023-09-05 07:38:57,15.08837605,0.0001503,53.2196,347.8723,105.4913,254.6245,5.9654e-06,-1.93e-06,0.0,0 STARLINK-4136,1 53260U 22086U   23248.31871599 -.00000193  00000-0  59654-5 0  9994,2 53260  53.2196 347.8723 0001503 105.4913 254.6245 15.08837605 62728,6917.888,95.438,540.792,538.713,0.0
53260.0,STARLINK-4136,PAYLOAD,2023-09-06 07:29:44,15.08843427,0.0001472,53.22,343.4123,105.1667,254.9488,0.00037008,5.607e-05,0.0,0 STARLINK-4136,1 53260U 22086U   23249.31231803  .00005607  00000-0  37008-3 0  9994,2 53260  53.2200 343.4123 0001472 105.1667 254.9488 15.08843427 62875,6917.87,95.437,540.753,538.717,0.0
53260.0,STARLINK-4136,PAYLOAD,2023-09-06 23:23:35,15.08849186,0.0001094,53.2166,340.4364,79.9795,280.132,0.00029583,4.425e-05,0.0,0 STARLINK-4136,1 53260U 22086U   23249.97471521  .00004425  00000-0  29583-3 0  9995,2 53260  53.2166 340.4364 0001094  79.9795 280.1320 15.08849186 62795,6917.852,95.437,540.474,538.96,0.0
53260.0,STARLINK-4136,PAYLOAD,2023-09-07 07:20:31,15.08846503,0.0001768,53.2149,338.949,77.611,282.508,0.00012708,1.735e-05,0.0,0 STARLINK-4136,1 53260U 22086U   23250.30591591  .00001735  00000-0  12708-3 0  9996,2 53260  53.2149 338.9490 0001768  77.6110 282.5080 15.08846503 63028,6917.861,95.437,540.949,538.502,0.0
53260.0,STARLINK-4136,PAYLOAD,2023-09-08 10:22:04,15.08845233,0.000171,53.2172,333.8948,92.6315,267.4872,0.00027455,4.085e-05,0.0,0 STARLINK-4136,1 53260U 22086U   23251.43199914  .00004085  00000-0  27455-3 0  9990,2 53260  53.2172 333.8948 0001710  92.6315 267.4872 15.08845233 63016,6917.864,95.437,540.912,538.546,0.0
53260.0,STARLINK-4136,PAYLOAD,2023-09-08 11:57:28,15.08843644,0.0001827,53.217,333.5973,90.3304,269.7898,0.00043512,6.644e-05,0.0,0 STARLINK-4136,1 53260U 22086U   23251.49824111  .00006644  00000-0  43512-3 0  9995,2 53260  53.2170 333.5973 0001827  90.3304 269.7898 15.08843644 63209,6917.869,95.437,540.998,538.47,0.0
53260.0,STARLINK-4136,PAYLOAD,2023-09-08 15:08:13,15.0885016,0.000131,53.2171,333.0027,80.1944,279.9197,0.00030947,4.642e-05,0.0,0 STARLINK-4136,1 53260U 22086U   23251.63071633  .00004642  00000-0  30947-3 0  9998,2 53260  53.2171 333.0027 0001310  80.1944 279.9197 15.08850160 63227,6917.849,95.437,540.621,538.808,0.0
53260.0,STARLINK-4136,PAYLOAD,2023-09-08 23:05:09,15.08843863,0.0001422,53.2174,331.5156,67.6119,292.5024,0.00033378,5.029e-05,0.0,0 STARLINK-4136,1 53260U 22086U   23251.96192056  .00005029  00000-0  33378-3 0  9998,2 53260  53.2174 331.5156 0001422  67.6119 292.5024 15.08843863 63091,6917.869,95.437,540.717,538.75,0.0
53260.0,STARLINK-4136,PAYLOAD,2023-09-09 11:48:15,15.08839072,0.000128,53.217,329.1363,90.4041,269.7098,0.00017061,2.428e-05,0.0,0 STARLINK-4136,1 53260U 22086U   23252.49184205  .00002428  00000-0  17061-3 0  9995,2 53260  53.2170 329.1363 0001280  90.4041 269.7098 15.08839072 63173,6917.883,95.438,540.634,538.863,0.0
53260.0,STARLINK-4136,PAYLOAD,2023-09-10 11:39:01,15.08847419,0.0001382,53.2169,324.6766,90.8916,269.2235,7.6533e-05,9.31e-06,0.0,0 STARLINK-4136,1 53260U 22086U   23253.48543672  .00000931  00000-0  76533-4 0  9999,2 53260  53.2169 324.6766 0001382  90.8916 269.2235 15.08847419 63505,6917.858,95.437,540.679,538.767,0.0
53260.0,STARLINK-4136,PAYLOAD,2023-09-10 14:49:47,15.08847965,0.0001368,53.2169,324.0815,90.7244,269.3905,0.00011548,1.551e-05,0.0,0 STARLINK-4136,1 53260U 22086U   23253.61791581  .00001551  00000-0  11548-3 0  9991,2 53260  53.2169 324.0815 0001368  90.7244 269.3905 15.08847965 63344,6917.856,95.437,540.667,538.775,0.0
53260.0,STARLINK-4136,PAYLOAD,2023-09-11 09:54:26,15.08835074,0.0001397,53.2177,320.5125,96.854,263.2611,6.0548e-05,6.76e-06,0.0,0 STARLINK-4136,1 53260U 22086U   23254.41280492  .00000676  00000-0  60548-4 0  9996,2 53260  53.2177 320.5125 0001397  96.8540 263.2611 15.08835074 63464,6917.895,95.438,540.727,538.794,0.0
